[{"OBJECT_NAME":"STARLINK-5121","OBJECT_ID":"2022-125AF","EPOCH":"2026-03-09T16:09:29.793600","MEAN_MOTION":15.08836447,"ECCENTRICITY":0.00011001,"INCLINATION":53.217,"RA_OF_ASC_NODE":208.9467,"ARG_OF_PERICENTER":78.3884,"MEAN_ANOMALY":281.7232,"EPHEMERIS_TYPE":0,"CLASSIFICATION_TYPE":"U","NORAD_CAT_ID":53993,"ELEMENT_SET_NO":999,"REV_AT_EPOCH":18952,"BSTAR":-3.0030007e-5,"MEAN_MOTION_DOT":-7.66e-6,"MEAN_MOTION_DDOT":0},{"OBJECT_NAME":"FENGYUN 1C DEB","OBJECT_ID":"1999-025AZQ","EPOCH":"2026-03-09T07:24:32.374656","MEAN_MOTION":14.90450247,"ECCENTRICITY":0.01635078,"INCLINATION":98.8142,"RA_OF_ASC_NODE":23.899,"ARG_OF_PERICENTER":102.803,"MEAN_ANOMALY":259.1511,"EPHEMERIS_TYPE":0,"CLASSIFICATION_TYPE":"U","NORAD_CAT_ID":30926,"ELEMENT_SET_NO":999,"REV_AT_EPOCH":2056,"BSTAR":0.00046140842,"MEAN_MOTION_DOT":5.728e-5,"MEAN_MOTION_DDOT":0}]
